     2.100          NAVIGATION                              RINEX VERSION / TYPE
fic2rin                                 06/11/2015 00:27:19 PGM / RUN BY / DATE
                                                            END OF HEADER
22 15  6 10  1 59 44.0  .359355472028D-03  .375166564481D-11  .000000000000D+00
     .260000000000D+02  .360937500000D+02  .543736934540D-08 -.829967232495D-01
     .193715095520D-05  .800021924078D-02  .107679516077D-04  .515369327354D+04
     .266384000000D+06 -.540167093277D-07 -.115658408970D+01  .102445483208D-06
     .922607056756D+00  .149625000000D+03 -.204591856838D+01 -.860000108171D-08
    -.257153568621D-10  .100000000000D+01  .184800000000D+04  .000000000000D+00
     .240000000000D+01  .000000000000D+00 -.176951289177D-07  .260000000000D+02
     .260706000000D+06  .400000000000D+01
 5 15  6 10  1 59 44.0 -.231262296438D-03  .454747350886D-11  .000000000000D+00
     .110000000000D+02  .201562500000D+02  .480127142080D-08 -.281379951370D+00
     .955536961555D-06  .413815153297D-02  .102911144495D-04  .515357719994D+04
     .266384000000D+06  .372529029846D-07 -.114428475370D+01  .335276126862D-07
     .946216326531D+00  .173187500000D+03  .369731553123D+00 -.818069790176D-08
    -.928610108910D-10  .100000000000D+01  .184800000000D+04  .000000000000D+00
     .240000000000D+01  .000000000000D+00 -.107102096081D-07  .110000000000D+02
     .261456000000D+06  .400000000000D+01
26 15  6 10  1 59 44.0  .299457460642D-04 -.147792889038D-11  .000000000000D+00
     .170000000000D+02  .240937500000D+02  .428303554848D-08 -.638532967655D+00
     .127963721752D-05  .330283888616D-03  .982545316219D-05  .515359024429D+04
     .266384000000D+06  .391155481339D-07  .200176158867D+01  .223517417908D-07
     .960273169883D+00  .190218750000D+03  .122862797454D+01 -.805069248651D-08
     .268939773850D-09  .100000000000D+01  .184800000000D+04  .000000000000D+00
     .240000000000D+01  .000000000000D+00  .745058059692D-08  .170000000000D+02
     .264486000000D+06  .400000000000D+01
12 15  6 10  1 59 44.0  .300159677863D-03  .318323145621D-11  .000000000000D+00
     .100000000000D+01  .110000000000D+02  .368301055503D-08  .185680745695D+01
     .549480319023D-06  .560076825786D-02  .934302806854D-05  .515367440414D+04
     .266384000000D+06 -.132247805595D-06  .205137216898D+01  .242143869400D-07
     .989681312336D+00  .212406250000D+03  .613088295988D+00 -.775960893314D-08
     .223937899341D-09  .100000000000D+01  .184800000000D+04  .000000000000D+00
     .240000000000D+01  .000000000000D+00 -.121071934700D-07  .100000000000D+01
     .264516000000D+06  .400000000000D+01
 5 15  6 10  3 59 44.0 -.231229700148D-03  .454747350886D-11  .000000000000D+00
     .360000000000D+02  .122500000000D+02  .495556356197D-08  .768863489382D+00
     .903382897377D-06  .413668330293D-02  .105854123831D-04  .515357450676D+04
     .273584000000D+06  .428408384323D-07 -.114434391411D+01 -.186264514923D-08
     .946215592146D+00  .164718750000D+03  .369731972981D+00 -.821355641331D-08
    -.750031241812D-10  .100000000000D+01  .184800000000D+04  .000000000000D+00
     .240000000000D+01  .000000000000D+00 -.107102096081D-07  .360000000000D+02
     .266406000000D+06  .400000000000D+01
12 15  6 10  3 59 44.0  .300182960927D-03  .318323145621D-11  .000000000000D+00
     .260000000000D+02  .296875000000D+01  .356300555634D-08  .290691337023D+01
     .216066837311D-06  .560119154397D-02  .960566103458D-05  .515367431068D+04
     .273584000000D+06  .745058059692D-08  .205131670683D+01 -.689178705215D-07
     .989683743706D+00  .209781250000D+03  .613155756993D+00 -.760495963424D-08
     .249296098469D-09  .100000000000D+01  .184800000000D+04  .000000000000D+00
     .240000000000D+01  .000000000000D+00 -.121071934700D-07  .260000000000D+02
     .266406000000D+06  .400000000000D+01
22 15  6 10  3 59 44.0  .359382480383D-03  .375166564481D-11  .000000000000D+00
     .270000000000D+02  .295937500000D+02  .554023077285D-08  .967194473772D+00
     .165775418282D-05  .799903261941D-02  .107064843178D-04  .515369114304D+04
     .273584000000D+06 -.122934579849D-06 -.115664576925D+01  .577419996262D-07
     .922606689563D+00  .157312500000D+03 -.204593273820D+01 -.857964309086D-08
    -.592881838766D-10  .100000000000D+01  .184800000000D+04  .000000000000D+00
     .240000000000D+01  .000000000000D+00 -.176951289177D-07  .270000000000D+02
     .266406000000D+06  .400000000000D+01
26 15  6 10  3 59 44.0  .299350358546D-04 -.147792889038D-11  .000000000000D+00
     .180000000000D+02  .158125000000D+02  .430089343519D-08  .411934375634D+00
     .789761543274D-06  .328316236846D-03  .920332968235D-05  .515358657455D+04
     .273584000000D+06 -.707805156708D-07  .200170427301D+01 -.260770320892D-07
     .960274951718D+00  .202312500000D+03  .122839134316D+01 -.800569061201D-08
     .180007498035D-09  .100000000000D+01  .184800000000D+04  .000000000000D+00
     .240000000000D+01  .000000000000D+00  .745058059692D-08  .180000000000D+02
     .266406000000D+06  .400000000000D+01
 1 15  6 10  4  0  0.0 -.447267666459D-05  .454747350886D-12  .000000000000D+00
     .480000000000D+02 -.668437500000D+02  .473876881731D-08 -.217715922264D+01
    -.362657010555D-05  .431219593156D-02  .863149762154D-05  .515366451073D+04
     .273600000000D+06  .856816768646D-07 -.217802600307D+01 -.838190317154D-07
     .962168827908D+00  .213187500000D+03  .386717758267D+00 -.815426822943D-08
    -.174292974288D-09  .100000000000D+01  .184800000000D+04  .000000000000D+00
     .240000000000D+01  .000000000000D+00  .558793544769D-08  .480000000000D+02
     .266406000000D+06  .400000000000D+01
 2 15  6 10  4  0  0.0  .571156386286D-03  .238742359215D-11  .000000000000D+00
     .500000000000D+01 -.689687500000D+02  .524771858854D-08 -.172180184110D+01
    -.348873436451D-05  .146138677374D-01  .684149563313D-05  .515357023048D+04
     .273600000000D+06  .264495611191D-06 -.221589789610D+01 -.949949026108D-07
     .940826254607D+00  .232562500000D+03 -.225896239053D+01 -.829355974577D-08
    -.289297764699D-10  .100000000000D+01  .184800000000D+04  .000000000000D+00
     .240000000000D+01  .000000000000D+00 -.204890966415D-07  .500000000000D+01
     .266406000000D+06  .400000000000D+01
 3 15  6 10  4  0  0.0  .347014050931D-03  .761701812735D-11  .000000000000D+00
     .830000000000D+02  .332187500000D+02  .454018911710D-08 -.305862494001D+00
     .163167715073D-05  .889102695510D-03  .117011368275D-04  .515367297554D+04
     .273600000000D+06 -.167638063431D-07 -.113713577587D+01  .316649675369D-07
     .959002071086D+00  .150281250000D+03 -.257859830652D+01 -.798318967475D-08
     .471448209139D-10  .100000000000D+01  .184800000000D+04  .000000000000D+00
     .240000000000D+01  .000000000000D+00  .186264514923D-08  .830000000000D+02
     .266406000000D+06  .400000000000D+01
 4 15  6 10  4  0  0.0 -.185267999768D-04 -.193267624127D-11  .000000000000D+00
     .660000000000D+02 -.722812500000D+02  .523521806785D-08 -.243065201871D+01
    -.384263694286D-05  .113517926075D-01  .792928040028D-05  .515368408394D+04
     .273600000000D+06  .234693288803D-06 -.220064557219D+01  .111758708954D-07
     .939880464903D+00  .211687500000D+03  .106301707235D+01 -.829784563858D-08
    -.900037490174D-10  .100000000000D+01  .184800000000D+04  .000000000000D+00
     .340000000000D+01  .000000000000D+00 -.651925802231D-08  .660000000000D+02
     .266406000000D+06  .400000000000D+01
 6 15  6 10  4  0  0.0  .181025825441D-03  .875388650456D-11  .000000000000D+00
     .980000000000D+02 -.701562500000D+02  .482805825086D-08 -.519552972758D+00
    -.356137752533D-05  .149267842062D-03  .786222517490D-05  .515376396179D+04
     .273600000000D+06  .167638063431D-07 -.218652595063D+01 -.130385160446D-07
     .962055375685D+00  .229875000000D+03 -.283029741581D+01 -.819426989566D-08
    -.182864759908D-09  .100000000000D+01  .184800000000D+04  .000000000000D+00
     .240000000000D+01  .000000000000D+00  .419095158577D-08  .980000000000D+02
     .266406000000D+06  .400000000000D+01
 7 15  6 10  4  0  0.0  .467722304165D-03  .238742359215D-11  .000000000000D+00
     .800000000000D+02 -.312500000000D+02  .425446292974D-08 -.282439257812D+01
    -.164657831192D-05  .846909277607D-02  .754185020924D-05  .515371307182D+04
     .273600000000D+06 -.186264514923D-08  .981864797673D+00 -.670552253723D-07
     .970151777298D+00  .239375000000D+03 -.274997180542D+01 -.797533220460D-08
    -.340728478423D-09  .100000000000D+01  .184800000000D+04  .000000000000D+00
     .240000000000D+01  .000000000000D+00 -.111758708954D-07  .800000000000D+02
     .266406000000D+06  .400000000000D+01
 8 15  6 10  4  0  0.0 -.223280396312D-03 -.159161572810D-11  .000000000000D+00
     .580000000000D+02  .179687500000D+02  .511914180423D-08  .100163241678D+01
     .884756445885D-06  .777943886351D-02  .937283039093D-05  .515371730042D+04
     .273600000000D+06 -.121071934700D-06  .202455413323D+01  .186264514923D-08
     .982925792176D+00  .211625000000D+03  .886496426386D+00 -.787639951223D-08
     .105004373854D-09  .100000000000D+01  .184800000000D+04  .000000000000D+00
     .340000000000D+01  .630000000000D+02 -.190921127796D-07  .580000000000D+02
     .266406000000D+06  .400000000000D+01
 9 15  6 10  4  0  0.0 -.168494880199D-03 -.477484718431D-11  .000000000000D+00
     .510000000000D+02  .556562500000D+02  .484841624171D-08 -.754906558945D+00
     .283122062683D-05  .468911835924D-03  .577233731747D-05  .515379446030D+04
     .273600000000D+06 -.335276126862D-07 -.943487715136D-01 -.298023223877D-07
     .957639671570D+00  .265656250000D+03  .261486891137D+01 -.833177562333D-08
     .642883921553D-11  .100000000000D+01  .184800000000D+04  .000000000000D+00
     .240000000000D+01  .000000000000D+00  .465661287308D-09  .510000000000D+02
     .266406000000D+06  .400000000000D+01
